*******************************************************************************
Ephemeris / WWW_USER Mon Mar 26 21:11:17 2018 Pasadena, USA      / Horizons    
*******************************************************************************
Target body name: Triton (801)                    {source: nep081xl}
Center body name: Neptune Barycenter (8)          {source: DE431mx}
Center-site name: BODY CENTER
*******************************************************************************
Start time      : A.D. 2000-Jan-01 00:00:00.0000 TDB
Stop  time      : A.D. 2010-Jan-01 00:00:00.0000 TDB
Step-size       : 7200 minutes
*******************************************************************************
Center geodetic : 0.00000000,0.00000000,0.0000000 {E-lon(deg),Lat(deg),Alt(km)}
Center cylindric: 0.00000000,0.00000000,0.0000000 {E-lon(deg),Dxy(km),Dz(km)}
Center radii    : (undefined)                                                  
Output units    : AU-D                                                         
Output type     : GEOMETRIC cartesian states
Output format   : 2 (position and velocity)
Reference frame : ICRF/J2000.0                                                 
Coordinate systm: Ecliptic and Mean Equinox of Reference Epoch                 
*******************************************************************************
JDTDB
   X     Y     Z
   VX    VY    VZ
*******************************************************************************
$$SOE
2455114.500000000 = A.D. 2009-Oct-10 00:00:00.0000 TDB 
   2.064896283569414E-03  5.409526271384477E-04 -1.031934781473150E-03
  -2.951688652646630E-04 -1.938251346008095E-03 -1.606708739488009E-03
2455119.500000000 = A.D. 2009-Oct-15 00:00:00.0000 TDB 
   1.444550186747138E-03  1.781535583523005E-03  6.005499861252258E-04
   1.604797225283061E-03 -6.808742832490378E-04 -1.840259297394807E-03
2455124.500000000 = A.D. 2009-Oct-20 00:00:00.0000 TDB 
  -3.549968099885765E-04  1.567705206896601E-03  1.742836577250601E-03
   2.194619599183057E-03  1.132446396574948E-03 -5.716237529928631E-04
2455129.500000000 = A.D. 2009-Oct-25 00:00:00.0000 TDB 
  -1.864650011015166E-03  7.396246030269469E-05  1.462473417110408E-03
   9.928614118949488E-04  2.021309826507545E-03  1.163651924703063E-03
2455134.500000000 = A.D. 2009-Oct-30 00:00:00.0000 TDB 
  -1.852035582122876E-03 -1.480237762938709E-03 -1.170908425626926E-05
  -1.019344146125477E-03  1.259981162850689E-03  1.949073965701429E-03
2455139.500000000 = A.D. 2009-Nov-04 00:00:00.0000 TDB 
  -3.275430539412847E-04 -1.826030145746403E-03 -1.476363317586849E-03
  -2.199293661899264E-03 -5.300265355070568E-04  1.143501564394401E-03
2455144.500000000 = A.D. 2009-Nov-09 00:00:00.0000 TDB 
   1.464250669306244E-03 -6.810724561854569E-04 -1.735926842510320E-03
  -1.583851449968126E-03 -1.887385563352704E-03 -5.954815442586086E-04
2455149.500000000 = A.D. 2009-Nov-14 00:00:00.0000 TDB 
   2.060657301664891E-03  1.019963342463690E-03 -5.785045841105061E-04
   3.244978162954773E-04 -1.703957766310459E-03 -1.848433840399067E-03
2455154.500000000 = A.D. 2009-Nov-19 00:00:00.0000 TDB 
   9.748601116455254E-04  1.888370967089292E-03  1.051159774236359E-03
   1.967873532636752E-03 -1.293837404690913E-04 -1.592564573479847E-03
2455159.500000000 = A.D. 2009-Nov-24 00:00:00.0000 TDB 
  -9.066904137821162E-04  1.215123884522204E-03  1.822796005246278E-03
   2.004721136427903E-03  1.550901664640903E-03 -3.668965209319445E-05
2455164.500000000 = A.D. 2009-Nov-29 00:00:00.0000 TDB 
  -2.047974307020786E-03 -4.502051742374142E-04  1.106504119381175E-03
   4.050350010099759E-04  1.965088243978547E-03  1.549168006518013E-03
2455169.500000000 = A.D. 2009-Dec-04 00:00:00.0000 TDB 
  -1.517356292057439E-03 -1.748060154817248E-03 -5.130379851042248E-04
  -1.525203982126467E-03  7.749635226212672E-04  1.870470940489540E-03
2455174.500000000 = A.D. 2009-Dec-09 00:00:00.0000 TDB 
   2.518968448477162E-04 -1.618848856850785E-03 -1.713826898000379E-03
  -2.210248886539876E-03 -1.047875717237553E-03  6.649497205806001E-04
2455179.500000000 = A.D. 2009-Dec-14 00:00:00.0000 TDB 
   1.815430810392361E-03 -1.680111672968723E-04 -1.515688355295773E-03
  -1.090995182225361E-03 -2.015310526103595E-03 -1.083364424224832E-03
2455184.500000000 = A.D. 2009-Dec-19 00:00:00.0000 TDB 
   1.896909809059353E-03  1.420057620396251E-03 -8.032691753951431E-05
   9.188240553438506E-04 -1.337492971788672E-03 -1.947401668042609E-03
2455189.500000000 = A.D. 2009-Dec-24 00:00:00.0000 TDB 
   4.298787693673836E-04  1.848848776666665E-03  1.420626276703576E-03
   2.178488823046723E-03  4.323136376538885E-04 -1.221813046570158E-03
2455194.500000000 = A.D. 2009-Dec-29 00:00:00.0000 TDB 
  -1.387998314199578E-03  7.682296598125202E-04  1.761955447705299E-03
   1.659709459405648E-03  1.849261226675318E-03  5.011488726153508E-04
